start=new Date('2022-05-14T00:00:00.000Z').valueOf();
sats=[{"TLE_LINE2":"2 45782  53.0564 342.5814 0001537  70.6508 289.4647 15.06403806106381","MEAN_MOTION_DOT":"-0.00000142","CENTER_NAME":"EARTH","MEAN_ELEMENT_THEORY":"SGP4","REF_FRAME":"TEME","TIME_SYSTEM":"UTC","LAUNCH_DATE":"2020-06-13","RA_OF_ASC_NODE":"342.5814","APOAPSIS":"548.266","TLE_LINE1":"1 45782U 20038BE  22133.89778399 -.00000142  00000-0  93597-5 0  9996","ARG_OF_PERICENTER":"70.6508","EPHEMERIS_TYPE":"0","FILE":"3444395","NORAD_CAT_ID":"45782","ECCENTRICITY":"0.00015370","BSTAR":"0.00000935970000","MEAN_MOTION":"15.06403806","OBJECT_NAME":"STARLINK-1498","OBJECT_ID":"2020-038BE","PERIAPSIS":"546.137","CLASSIFICATION_TYPE":"U","DECAY_DATE":null,"OBJECT_TYPE":"PAYLOAD","REV_AT_EPOCH":"10638","ELEMENT_SET_NO":"999","COUNTRY_CODE":"US","MEAN_MOTION_DDOT":"0.0000000000000","SITE":"AFETR","PERIOD":"95.592","GP_ID":"203475062","EPOCH":"2022-05-13T21:32:48.536736","MEAN_ANOMALY":"289.4647","SEMIMAJOR_AXIS":"6925.337","INCLINATION":"53.0564","RCS_SIZE":"LARGE"},{"BSTAR":"-0.00030651000000","ECCENTRICITY":"0.00012930","NORAD_CAT_ID":"45783","PERIAPSIS":"546.249","MEAN_MOTION":"15.06422608","OBJECT_NAME":"STARLINK-1505","OBJECT_ID":"2020-038BF","COUNTRY_CODE":"US","MEAN_MOTION_DDOT":"0.0000000000000","GP_ID":"203476313","PERIOD":"95.591","SITE":"AFETR","DECAY_DATE":null,"CLASSIFICATION_TYPE":"U","REV_AT_EPOCH":"10638","OBJECT_TYPE":"PAYLOAD","ELEMENT_SET_NO":"999","RCS_SIZE":"LARGE","MEAN_ANOMALY":"279.1353","EPOCH":"2022-05-13T21:38:07.202400","INCLINATION":"53.0554","SEMIMAJOR_AXIS":"6925.279","CENTER_NAME":"EARTH","MEAN_MOTION_DOT":"-0.00004847","TLE_LINE2":"2 45783  53.0554 342.5596 0001293  80.9782 279.1353 15.06422608106386","MEAN_ELEMENT_THEORY":"SGP4","RA_OF_ASC_NODE":"342.5596","LAUNCH_DATE":"2020-06-13","TIME_SYSTEM":"UTC","REF_FRAME":"TEME","TLE_LINE1":"1 45783U 20038BF  22133.90147225 -.00004847  00000-0 -30651-3 0  9994","ARG_OF_PERICENTER":"80.9782","EPHEMERIS_TYPE":"0","FILE":"3444395","APOAPSIS":"548.040"},{"OBJECT_NAME":"STARLINK-1510","OBJECT_ID":"2020-038BG","MEAN_MOTION":"15.06397211","PERIAPSIS":"546.149","NORAD_CAT_ID":"45784","ECCENTRICITY":"0.00015500","BSTAR":"0.00000877150000","SEMIMAJOR_AXIS":"6925.357","INCLINATION":"53.0535","EPOCH":"2022-05-13T21:00:57.503520","MEAN_ANOMALY":"290.9184","RCS_SIZE":"LARGE","OBJECT_TYPE":"PAYLOAD","REV_AT_EPOCH":"10729","ELEMENT_SET_NO":"999","CLASSIFICATION_TYPE":"U","DECAY_DATE":null,"SITE":"AFETR","PERIOD":"95.592","GP_ID":"203449462","MEAN_MOTION_DDOT":"0.0000000000000","COUNTRY_CODE":"US","MEAN_ELEMENT_THEORY":"SGP4","TLE_LINE2":"2 45784  53.0535 342.6709 0001550  69.1971 290.9184 15.06397211107293","CENTER_NAME":"EARTH","MEAN_MOTION_DOT":"-0.00000151","APOAPSIS":"548.296","FILE":"3444069","EPHEMERIS_TYPE":"0","TLE_LINE1":"1 45784U 20038BG  22133.87566555 -.00000151  00000-0  87715-5 0  9990","ARG_OF_PERICENTER":"69.1971","REF_FRAME":"TEME","TIME_SYSTEM":"UTC","LAUNCH_DATE":"2020-06-13","RA_OF_ASC_NODE":"342.6709"},{"APOAPSIS":"548.367","FILE":"3444069","ARG_OF_PERICENTER":"61.8871","TLE_LINE1":"1 45785U 20038BH  22133.85724468  .00000831  00000-0  74663-4 0  9999","EPHEMERIS_TYPE":"0","TIME_SYSTEM":"UTC","LAUNCH_DATE":"2020-06-13","REF_FRAME":"TEME","RA_OF_ASC_NODE":"342.7471","MEAN_ELEMENT_THEORY":"SGP4","TLE_LINE2":"2 45785  53.0574 342.7471 0001640  61.8871 298.2284 15.06394343107297","CENTER_NAME":"EARTH","MEAN_MOTION_DOT":"0.00000831","INCLINATION":"53.0574","SEMIMAJOR_AXIS":"6925.366","MEAN_ANOMALY":"298.2284","EPOCH":"2022-05-13T20:34:25.940352","RCS_SIZE":"LARGE","ELEMENT_SET_NO":"999","OBJECT_TYPE":"PAYLOAD","REV_AT_EPOCH":"10729","DECAY_DATE":null,"CLASSIFICATION_TYPE":"U","PERIOD":"95.592","GP_ID":"203448966","SITE":"AFETR","MEAN_MOTION_DDOT":"0.0000000000000","COUNTRY_CODE":"US","OBJECT_ID":"2020-038BH","OBJECT_NAME":"STARLINK-1512","MEAN_MOTION":"15.06394343","PERIAPSIS":"546.095","NORAD_CAT_ID":"45785","ECCENTRICITY":"0.00016400","BSTAR":"0.00007466300000"},{"REF_FRAME":"TEME","TIME_SYSTEM":"UTC","LAUNCH_DATE":"2020-06-13","RA_OF_ASC_NODE":"342.8276","APOAPSIS":"548.250","FILE":"3444069","EPHEMERIS_TYPE":"0","TLE_LINE1":"1 45786U 20038BJ  22133.84249632  .00000777  00000-0  71025-4 0  9992","ARG_OF_PERICENTER":"66.9537","TLE_LINE2":"2 45786  53.0577 342.8276 0001487  66.9537 293.1609 15.06397929107297","MEAN_MOTION_DOT":"0.00000777","CENTER_NAME":"EARTH","MEAN_ELEMENT_THEORY":"SGP4","ELEMENT_SET_NO":"999","OBJECT_TYPE":"PAYLOAD","REV_AT_EPOCH":"10729","CLASSIFICATION_TYPE":"U","DECAY_DATE":null,"SITE":"AFETR","GP_ID":"203448961","PERIOD":"95.592","COUNTRY_CODE":"US","MEAN_MOTION_DDOT":"0.0000000000000","SEMIMAJOR_AXIS":"6925.355","INCLINATION":"53.0577","EPOCH":"2022-05-13T20:13:11.682048","MEAN_ANOMALY":"293.1609","RCS_SIZE":"LARGE","ECCENTRICITY":"0.00014870","NORAD_CAT_ID":"45786","BSTAR":"0.00007102500000","OBJECT_NAME":"STARLINK-1513","OBJECT_ID":"2020-038BJ","MEAN_MOTION":"15.06397929","PERIAPSIS":"546.190"},{"MEAN_MOTION":"15.06397976","OBJECT_NAME":"STARLINK-1517","OBJECT_ID":"2020-038BK","PERIAPSIS":"545.969","ECCENTRICITY":"0.00018060","NORAD_CAT_ID":"45787","BSTAR":"-0.00003994000000","EPOCH":"2022-05-13T20:23:48.651360","MEAN_ANOMALY":"290.3610","SEMIMAJOR_AXIS":"6925.355","INCLINATION":"53.0577","RCS_SIZE":"LARGE","CLASSIFICATION_TYPE":"U","DECAY_DATE":null,"OBJECT_TYPE":"PAYLOAD","ELEMENT_SET_NO":"999","REV_AT_EPOCH":"10729","COUNTRY_CODE":"US","MEAN_MOTION_DDOT":"0.0000000000000","SITE":"AFETR","PERIOD":"95.592","GP_ID":"203448975","MEAN_ELEMENT_THEORY":"SGP4","TLE_LINE2":"2 45787  53.0577 342.7973 0001806  69.7573 290.3610 15.06397976107290","CENTER_NAME":"EARTH","MEAN_MOTION_DOT":"-0.00000876","APOAPSIS":"548.470","TLE_LINE1":"1 45787U 20038BK  22133.84986865 -.00000876  00000-0 -39940-4 0  9991","ARG_OF_PERICENTER":"69.7573","EPHEMERIS_TYPE":"0","FILE":"3444070","REF_FRAME":"TEME","LAUNCH_DATE":"2020-06-13","TIME_SYSTEM":"UTC","RA_OF_ASC_NODE":"342.7973"},{"OBJECT_TYPE":"PAYLOAD","REV_AT_EPOCH":"9848","ELEMENT_SET_NO":"999","CLASSIFICATION_TYPE":"U","DECAY_DATE":null,"SITE":"AFETR","PERIOD":"95.592","GP_ID":"203476089","COUNTRY_CODE":"US","MEAN_MOTION_DDOT":"0.0000000000000","SEMIMAJOR_AXIS":"6925.356","INCLINATION":"53.0543","EPOCH":"2022-05-13T18:09:46.949760","MEAN_ANOMALY":"288.3623","RCS_SIZE":"LARGE","ECCENTRICITY":"0.00015480","NORAD_CAT_ID":"46027","BSTAR":"0.00013119000000","OBJECT_ID":"2020-055A","OBJECT_NAME":"STARLINK-1522","MEAN_MOTION":"15.06397722","PERIAPSIS":"546.148","REF_FRAME":"TEME","LAUNCH_DATE":"2020-08-07","TIME_SYSTEM":"UTC","RA_OF_ASC_NODE":"273.1933","APOAPSIS":"548.293","FILE":"3444395","EPHEMERIS_TYPE":"0","TLE_LINE1":"1 46027U 20055A   22133.75679340  .00001673  00000-0  13119-3 0  9998","ARG_OF_PERICENTER":"71.7534","TLE_LINE2":"2 46027  53.0543 273.1933 0001548  71.7534 288.3623 15.06397722 98487","MEAN_MOTION_DOT":"0.00001673","CENTER_NAME":"EARTH","MEAN_ELEMENT_THEORY":"SGP4"},{"REF_FRAME":"TEME","TIME_SYSTEM":"UTC","LAUNCH_DATE":"2020-08-07","RA_OF_ASC_NODE":"272.8297","APOAPSIS":"547.938","FILE":"3444076","ARG_OF_PERICENTER":"69.3252","TLE_LINE1":"1 46028U 20055B   22133.83788058  .00001764  00000-0  13728-3 0  9992","EPHEMERIS_TYPE":"0","TLE_LINE2":"2 46028  53.0538 272.8297 0001070  69.3252 290.7851 15.06405429 97990","MEAN_MOTION_DOT":"0.00001764","CENTER_NAME":"EARTH","MEAN_ELEMENT_THEORY":"SGP4","REV_AT_EPOCH":"9799","OBJECT_TYPE":"PAYLOAD","ELEMENT_SET_NO":"999","CLASSIFICATION_TYPE":"U","DECAY_DATE":null,"SITE":"AFETR","GP_ID":"203449065","PERIOD":"95.592","COUNTRY_CODE":"US","MEAN_MOTION_DDOT":"0.0000000000000","SEMIMAJOR_AXIS":"6925.332","INCLINATION":"53.0538","EPOCH":"2022-05-13T20:06:32.882112","MEAN_ANOMALY":"290.7851","RCS_SIZE":"LARGE","NORAD_CAT_ID":"46028","ECCENTRICITY":"0.00010700","BSTAR":"0.00013728000000","OBJECT_ID":"2020-055B","OBJECT_NAME":"STARLINK-1523","MEAN_MOTION":"15.06405429","PERIAPSIS":"546.456"},{"CLASSIFICATION_TYPE":"U","DECAY_DATE":null,"OBJECT_TYPE":"PAYLOAD","ELEMENT_SET_NO":"999","REV_AT_EPOCH":"9846","COUNTRY_CODE":"US","MEAN_MOTION_DDOT":"0.0000000000000","SITE":"AFETR","GP_ID":"203475087","PERIOD":"95.592","EPOCH":"2022-05-13T13:33:46.977984","MEAN_ANOMALY":"285.7558","SEMIMAJOR_AXIS":"6925.320","INCLINATION":"53.0535","RCS_SIZE":"LARGE","NORAD_CAT_ID":"46029","ECCENTRICITY":"0.00013550","BSTAR":"0.00032223000000","MEAN_MOTION":"15.06409160","OBJECT_ID":"2020-055C","OBJECT_NAME":"STARLINK-1526","PERIAPSIS":"546.247","REF_FRAME":"TEME","TIME_SYSTEM":"UTC","LAUNCH_DATE":"2020-08-07","RA_OF_ASC_NODE":"274.0660","APOAPSIS":"548.124","TLE_LINE1":"1 46029U 20055C   22133.56512706  .00004523  00000-0  32223-3 0  9995","EPHEMERIS_TYPE":"0","ARG_OF_PERICENTER":"74.3581","FILE":"3444395","TLE_LINE2":"2 46029  53.0535 274.0660 0001355  74.3581 285.7558 15.06409160 98460","MEAN_MOTION_DOT":"0.00004523","CENTER_NAME":"EARTH","MEAN_ELEMENT_THEORY":"SGP4"},{"RA_OF_ASC_NODE":"273.6824","REF_FRAME":"TEME","LAUNCH_DATE":"2020-08-07","TIME_SYSTEM":"UTC","FILE":"3444395","TLE_LINE1":"1 46030U 20055D   22133.64990104  .00002118  00000-0  16103-3 0  9995","EPHEMERIS_TYPE":"0","ARG_OF_PERICENTER":"91.3148","APOAPSIS":"548.097","CENTER_NAME":"EARTH","MEAN_MOTION_DOT":"0.00002118","TLE_LINE2":"2 46030  53.0573 273.6824 0001304  91.3148 268.7990 15.06406308 98432","MEAN_ELEMENT_THEORY":"SGP4","SITE":"AFETR","GP_ID":"203476338","PERIOD":"95.592","COUNTRY_CODE":"US","MEAN_MOTION_DDOT":"0.0000000000000","OBJECT_TYPE":"PAYLOAD","REV_AT_EPOCH":"9843","ELEMENT_SET_NO":"999","CLASSIFICATION_TYPE":"U","DECAY_DATE":null,"RCS_SIZE":"LARGE","SEMIMAJOR_AXIS":"6925.329","INCLINATION":"53.0573","EPOCH":"2022-05-13T15:35:51.449856","MEAN_ANOMALY":"268.7990","BSTAR":"0.00016103000000","ECCENTRICITY":"0.00013040","NORAD_CAT_ID":"46030","PERIAPSIS":"546.291","OBJECT_ID":"2020-055D","OBJECT_NAME":"STARLINK-1534","MEAN_MOTION":"15.06406308"}];
